{
"type": "FeatureCollection",
"name": "fundacion_basin",
"crs": { "type": "name", "properties": { "name": "urn:ogc:def:crs:OGC:1.3:CRS84" } },
"features": [
{ "type": "Feature", "properties": { "name": "Fundacion River Basin", "area_km2": 1951.7625115057713 }, "geometry": { "type": "Polygon", "coordinates": [ [ [ -74.416418364361562, 10.715500074624458 ], [ -74.423318801278469, 10.698130009281726 ], [ -74.427363884988381, 10.683853243246745 ], [ -74.395122188359437, 10.65702482040615 ], [ -74.371625010926834, 10.650481302640117 ], [ -74.327604982318917, 10.646317245879914 ], [ -74.291615634605819, 10.628173855710429 ], [ -74.27525684019065, 10.61776371380995 ], [ -74.26187237203294, 10.600810054143381 ], [ -74.256816017395465, 10.587425585985613 ], [ -74.249528918065096, 10.577610309336535 ], [ -74.245662293930593, 10.573000103637753 ], [ -74.234211137840077, 10.563928408553011 ], [ -74.220826669682253, 10.551287521959352 ], [ -74.206549903647272, 10.542215826874838 ], [ -74.194950031243877, 10.534780011231589 ], [ -74.174575896381441, 10.529277507655422 ], [ -74.161786293475075, 10.52436986933111 ], [ -74.149888988445923, 10.515744323184947 ], [ -74.134125059282326, 10.519759663632101 ], [ -74.127135392577713, 10.524072436705353 ], [ -74.122227754253174, 10.528087777152507 ], [ -74.114494505984226, 10.531805684974302 ], [ -74.101704903077859, 10.531805684974302 ], [ -74.092633207993174, 10.531508252348601 ], [ -74.079843605086808, 10.528831358717014 ], [ -74.069136030560571, 10.534036429667083 ], [ -74.063187378045996, 10.53715947223742 ], [ -74.060771646324781, 10.538226747327769 ], [ -74.060745238120944, 10.538284286381838 ], [ -74.060653751142013, 10.538278833654658 ], [ -74.055372974530428, 10.537964093408902 ], [ -74.053732196942633, 10.541538935226129 ], [ -74.051489867027271, 10.543542426945692 ], [ -74.050352019126933, 10.547544781885222 ], [ -74.052852019126931, 10.549778516016431 ], [ -74.053638457115142, 10.551492052596757 ], [ -74.054518685793539, 10.553111849349648 ], [ -74.055305123781807, 10.55482538593003 ], [ -74.056185352460147, 10.556445182682751 ], [ -74.057101184979786, 10.558440676254008 ], [ -74.056955056643119, 10.560893094263349 ], [ -74.053591612632715, 10.563898300053495 ], [ -74.051232196942635, 10.566538935225879 ], [ -74.046138457115148, 10.568111849349634 ], [ -74.043720549400348, 10.569425770960265 ], [ -74.042458800132749, 10.574848820886871 ], [ -74.040439858889272, 10.578564107141915 ], [ -74.031995238120999, 10.578060783268825 ], [ -74.023977914309114, 10.578538637679799 ], [ -74.022852019126901, 10.577278516016065 ], [ -74.018656004722573, 10.575982815943178 ], [ -74.016185352460184, 10.577325385930067 ], [ -74.01380065804284, 10.578419873438179 ], [ -74.012852019126797, 10.581492052596673 ], [ -74.011347553387907, 10.584260645431129 ], [ -74.004142861818934, 10.586485402307858 ], [ -74.001510212079324, 10.590624870182978 ], [ -73.987358244712823, 10.592099644861548 ], [ -73.984717914716043, 10.587948173405493 ], [ -73.980997821942594, 10.588169896326406 ], [ -73.978958637372273, 10.59045220426907 ], [ -73.976098326499994, 10.588897905868123 ], [ -73.974143675621008, 10.589014406722811 ], [ -73.970474598065664, 10.593120864750802 ], [ -73.967314808026629, 10.594096588017408 ], [ -73.962505644615135, 10.599479036849687 ], [ -73.960305123781836, 10.601445182682824 ], [ -73.957007648602769, 10.605135736983925 ], [ -73.953263446942628, 10.607517010889467 ], [ -73.948515878176408, 10.608983037195514 ], [ -73.946221973553861, 10.611550392033564 ], [ -73.943685352460193, 10.609778516016263 ], [ -73.94113845711513, 10.608992052596534 ], [ -73.935473326499846, 10.605489829899795 ], [ -73.932852019126813, 10.599778516016102 ], [ -73.930196837242136, 10.59635229480466 ], [ -73.927552946861226, 10.596509879948712 ], [ -73.924518685793601, 10.598158719263381 ], [ -73.922504220461519, 10.599083287439726 ], [ -73.919617817059816, 10.6023137765348 ], [ -73.909991962567631, 10.603441388330737 ], [ -73.90759053434499, 10.602136418543182 ], [ -73.902805123781889, 10.600658719263492 ], [ -73.900313821291604, 10.599764821253075 ], [ -73.896804045494036, 10.605283416630755 ], [ -73.892318164960159, 10.609291531763347 ], [ -73.890352019126851, 10.611492052596816 ], [ -73.887137297447168, 10.612967501205048 ], [ -73.88118535246025, 10.618158719263363 ], [ -73.872973173912044, 10.61969152820302 ], [ -73.869115650311755, 10.61699700407388 ], [ -73.862852019126933, 10.622325385930139 ], [ -73.861138457115146, 10.623111849349698 ], [ -73.856353606040955, 10.627037745040525 ], [ -73.853385873293519, 10.630359240096766 ], [ -73.84901682422128, 10.634262946965293 ], [ -73.843216602460188, 10.633917246383362 ], [ -73.839518685793507, 10.629778516016415 ], [ -73.835305123781836, 10.628992052596686 ], [ -73.830843250409373, 10.627136215092548 ], [ -73.824299264406818, 10.632505401493972 ], [ -73.821918638999932, 10.637692347091274 ], [ -73.818432870363836, 10.639909258407329 ], [ -73.816232196942622, 10.642372262201661 ], [ -73.813710122561133, 10.644625737390868 ], [ -73.809141488527871, 10.64568870278373 ], [ -73.802989449953657, 10.645322027724887 ], [ -73.799434813316395, 10.650911175928343 ], [ -73.796971790448481, 10.653111849349614 ], [ -73.79618535246027, 10.653992052596607 ], [ -73.795305123781873, 10.654778516016336 ], [ -73.792852019126883, 10.65815871926344 ], [ -73.786663664634659, 10.658945182682942 ], [ -73.781893309410066, 10.657233521662022 ], [ -73.780211383954338, 10.657333771906053 ], [ -73.778685352460172, 10.660658719263324 ], [ -73.777365009442633, 10.661838408035067 ], [ -73.776185352460232, 10.663158719263436 ], [ -73.775151722089106, 10.664082251113541 ], [ -73.771668852622952, 10.663874661645934 ], [ -73.764317218915323, 10.664852171462655 ], [ -73.762606657798756, 10.666766628148139 ], [ -73.756596475100196, 10.660040007155999 ], [ -73.752404529706382, 10.657373953384138 ], [ -73.741138457115142, 10.656492052596718 ], [ -73.738685352460209, 10.655611849349725 ], [ -73.734295042808583, 10.654590375147222 ], [ -73.730052946861235, 10.654843213281993 ], [ -73.725383909996026, 10.65738040658033 ], [ -73.722418974693255, 10.65530936928792 ], [ -73.721183928306573, 10.644766340774027 ], [ -73.717691801841681, 10.645701634607519 ], [ -73.715328571454393, 10.645560783268934 ], [ -73.712652179852796, 10.645720301192966 ], [ -73.707852019126847, 10.643111849349452 ], [ -73.704587604657434, 10.64161358249379 ], [ -73.699079741294838, 10.640585547011995 ], [ -73.697552946861208, 10.640676546615225 ], [ -73.694266915773994, 10.642462187331944 ], [ -73.690936125572193, 10.642263657770457 ], [ -73.686050617352805, 10.638851080459233 ], [ -73.676884459312419, 10.639397408685966 ], [ -73.674518634930962, 10.638111849349627 ], [ -73.669096373374941, 10.637325385930126 ], [ -73.666130980308537, 10.642418712498625 ], [ -73.661360167320197, 10.644608367802618 ], [ -73.652911274091082, 10.639672848902023 ], [ -73.646024067059841, 10.640083348474661 ], [ -73.642836506024594, 10.638939606866927 ], [ -73.636439309572836, 10.640076431157127 ], [ -73.633292133466, 10.64359882724483 ], [ -73.631818439618371, 10.644915584446949 ], [ -73.626072081382688, 10.644573088210564 ], [ -73.621403400555891, 10.645823520543161 ], [ -73.617411904787673, 10.64558561694804 ], [ -73.615043638999907, 10.645726773462627 ], [ -73.609455768719897, 10.641396462641069 ], [ -73.603042194501199, 10.641778733454089 ], [ -73.59845194385025, 10.640549345534964 ], [ -73.596932066734212, 10.638848213078575 ], [ -73.593661904787666, 10.63904311867725 ], [ -73.591995238121058, 10.638943783960656 ], [ -73.586379495119729, 10.639278491856544 ], [ -73.57701863493088, 10.637278516016295 ], [ -73.567805174644434, 10.636492052596736 ], [ -73.565107929364558, 10.635524263900265 ], [ -73.562828571454361, 10.635660117985765 ], [ -73.56198028450774, 10.635609560531179 ], [ -73.558373411949162, 10.636575594466876 ], [ -73.554143675621049, 10.63632349384028 ], [ -73.552018634930846, 10.633945182683021 ], [ -73.549733275230381, 10.631903213383794 ], [ -73.547790627932216, 10.628848594548231 ], [ -73.544471841311122, 10.627325385930135 ], [ -73.540363768394457, 10.624141792179898 ], [ -73.535905658856677, 10.623104550562175 ], [ -73.531300658042937, 10.62060217273438 ], [ -73.529495238121001, 10.620709785344218 ], [ -73.527813617841105, 10.62060956053125 ], [ -73.524206745282527, 10.62157559446689 ], [ -73.521823525881416, 10.621433547856327 ], [ -73.52205973193611, 10.617470509729685 ], [ -73.521138507977867, 10.613158719263367 ], [ -73.520351968264322, 10.608945182683101 ], [ -73.518638507977755, 10.608158719263372 ], [ -73.515517271812428, 10.604665499251951 ], [ -73.518375344729066, 10.596700296920517 ], [ -73.524023029462171, 10.595386273584666 ], [ -73.535673216636724, 10.587874524317101 ], [ -73.538835753257729, 10.58642300657624 ], [ -73.541560667808426, 10.583373334131522 ], [ -73.544595030601499, 10.581443504216281 ], [ -73.546138507977787, 10.576445182683074 ], [ -73.54785196826424, 10.573992052596623 ], [ -73.548638507977785, 10.572059120060999 ], [ -73.546617328778552, 10.568339790227014 ], [ -73.550885822430985, 10.564525906763379 ], [ -73.553728941734221, 10.561343889754937 ], [ -73.553622740562389, 10.559561828495987 ], [ -73.547805174644395, 10.557325385930142 ], [ -73.546043700035057, 10.556368214807833 ], [ -73.546253254071587, 10.552853251022043 ], [ -73.54495157763921, 10.541832005701394 ], [ -73.543522541180891, 10.54055513751706 ], [ -73.541538491701715, 10.536232220850309 ], [ -73.543962502932231, 10.53276193988512 ], [ -73.54361226286062, 10.526885284306616 ], [ -73.543866881187398, 10.522612619918618 ], [ -73.542000934735597, 10.519178731165368 ], [ -73.541185301597636, 10.513945169967428 ], [ -73.540281676109203, 10.512282165410056 ], [ -73.545351968264242, 10.511492065312382 ], [ -73.54697184131112, 10.510611836633984 ], [ -73.549518634930848, 10.50982539864583 ], [ -73.553617450848947, 10.506649001957953 ], [ -73.55697184131111, 10.508992065312498 ], [ -73.564182839846296, 10.513417139571857 ], [ -73.566138507977712, 10.516492065312377 ], [ -73.56711995329033, 10.517369013351185 ], [ -73.574911904787655, 10.516904612106089 ], [ -73.581995238120953, 10.517326797368128 ], [ -73.583669432456929, 10.517227004887332 ], [ -73.584471841311029, 10.519825398645821 ], [ -73.58599894092049, 10.52263573698383 ], [ -73.596185301597586, 10.528111836634025 ], [ -73.599534707522082, 10.530707432947565 ], [ -73.601915994143155, 10.530565500777925 ], [ -73.602805174644459, 10.530966883223925 ], [ -73.601130268231714, 10.535634610376633 ], [ -73.601404722984341, 10.536445182682996 ], [ -73.60476236865486, 10.534620600265214 ], [ -73.60978627409105, 10.535966145716088 ], [ -73.613125304038988, 10.534151697677316 ], [ -73.615099587893155, 10.536361310205848 ], [ -73.618624673342424, 10.538603245935519 ], [ -73.621956785972543, 10.540132570785033 ], [ -73.630836383954374, 10.538554595830078 ], [ -73.632365009442594, 10.540265487553654 ], [ -73.634348245119725, 10.542037503443055 ], [ -73.637489215985568, 10.540330680729824 ], [ -73.64253285612233, 10.544239346704728 ], [ -73.646141864911385, 10.541442588688824 ], [ -73.648627826825418, 10.541590764246337 ], [ -73.653182778811129, 10.533767227055591 ], [ -73.661549783205714, 10.531183558028602 ], [ -73.663784890627483, 10.528681904993334 ], [ -73.666971841311124, 10.529825398645812 ], [ -73.671362100100168, 10.530846872848258 ], [ -73.675328571454372, 10.530610437911548 ], [ -73.676180723960783, 10.530661249679326 ], [ -73.678322651044255, 10.529497258386812 ], [ -73.680727029299419, 10.52680634550444 ], [ -73.682805123781748, 10.522278503300697 ], [ -73.6839429716822, 10.521261861048174 ], [ -73.687845356122295, 10.52149445585593 ], [ -73.690549213544216, 10.520524251184838 ], [ -73.694846800620951, 10.520780420821836 ], [ -73.698472288902281, 10.524838088871888 ], [ -73.699911904787712, 10.524752283614816 ], [ -73.701578571454377, 10.524851618331411 ], [ -73.703718311444561, 10.524724080286433 ], [ -73.706971790448449, 10.526492065312368 ], [ -73.710159605796775, 10.527955128870303 ], [ -73.718746540204393, 10.523288940312455 ], [ -73.721531676109294, 10.520171747726067 ], [ -73.723501941815584, 10.518411315800677 ], [ -73.728292133466084, 10.516932154220285 ], [ -73.732233071779774, 10.515518096806545 ], [ -73.734062193687407, 10.513470952234627 ], [ -73.7436619047877, 10.514043131393066 ], [ -73.746364388918551, 10.513882049443339 ], [ -73.754119973635284, 10.516664820235974 ], [ -73.757828571454354, 10.516443771244951 ], [ -73.758661904787743, 10.516493464034738 ], [ -73.762517902509046, 10.516263615808782 ], [ -73.764495238121015, 10.517338114303243 ], [ -73.766138457115119, 10.516445169967312 ], [ -73.768669076418576, 10.515283721806554 ], [ -73.772852019126958, 10.513992065312436 ], [ -73.777188414390537, 10.511635625086228 ], [ -73.780352019126838, 10.510658731978992 ], [ -73.781138457115162, 10.509778503300652 ], [ -73.786054279462121, 10.506916539392819 ], [ -73.78697179044849, 10.503945169967267 ], [ -73.788783415611306, 10.501351684452743 ], [ -73.791180723960792, 10.501494583012573 ], [ -73.792805123781875, 10.500611836633823 ], [ -73.796071267580658, 10.499603281539635 ], [ -73.797195586021417, 10.493579671106602 ], [ -73.796835020835886, 10.487530247888969 ], [ -73.798295541262235, 10.484842513920796 ], [ -73.803635608807838, 10.483845809819115 ], [ -73.806971790448472, 10.485658731979072 ], [ -73.81050170784755, 10.486748743575788 ], [ -73.815865070477855, 10.490905110559709 ], [ -73.819641163007077, 10.488853134038038 ], [ -73.823661904787684, 10.489092798751528 ], [ -73.836888477460263, 10.488304453414628 ], [ -73.837805123781834, 10.487278503300786 ], [ -73.841018523033142, 10.486286224247863 ], [ -73.850228982424426, 10.486835210047104 ], [ -73.854008940513609, 10.485478907149911 ], [ -73.857805123781816, 10.480611836634068 ], [ -73.859280953859923, 10.479293197514551 ], [ -73.8646252430039, 10.475894302250822 ], [ -73.870352019126869, 10.474825398645748 ], [ -73.876227008954288, 10.473570185226151 ], [ -73.878990121340394, 10.469225626510138 ], [ -73.883685352460247, 10.46649206531248 ], [ -73.887372384523985, 10.463916585169216 ], [ -73.892498116945831, 10.464222091557588 ], [ -73.89448160693604, 10.467340810022733 ], [ -73.899987435793491, 10.465050770960147 ], [ -73.904868366376263, 10.462033370854385 ], [ -73.907683612958238, 10.458882507206908 ], [ -73.90863845711516, 10.454778503300759 ], [ -73.911163176353455, 10.452522720219349 ], [ -73.912805123781823, 10.448945169967431 ], [ -73.915480803306536, 10.445492563765924 ], [ -73.918638457115094, 10.437278503300718 ], [ -73.920086160158803, 10.43461444588695 ], [ -73.924038339113793, 10.432100865564735 ], [ -73.927845356122305, 10.432327789189344 ], [ -73.931924386477135, 10.430864166142385 ], [ -73.932805123781804, 10.428945169967449 ], [ -73.93951868579353, 10.426492065312402 ], [ -73.94113845711513, 10.425611836634005 ], [ -73.944518685793525, 10.42482539864568 ], [ -73.948915404136642, 10.422436152022897 ], [ -73.957238056317635, 10.421492065312407 ], [ -73.96039214974212, 10.423206008793784 ], [ -73.964107207115148, 10.422984578333114 ], [ -73.967758279299403, 10.418898300053684 ], [ -73.970392098879529, 10.416545013310383 ], [ -73.977018685793553, 10.415658731979079 ], [ -73.978983509198486, 10.414591023645755 ], [ -73.981747689699773, 10.411497329594624 ], [ -73.985352019126879, 10.410658731979083 ], [ -73.987331592694602, 10.409583012781468 ], [ -73.990305123781866, 10.401445169967246 ], [ -73.993602497235599, 10.399348078292348 ], [ -73.994471790448472, 10.395611836634089 ], [ -73.994805479885429, 10.394681879304244 ], [ -73.992298721397617, 10.386348601087832 ], [ -73.999199158314525, 10.382065571277167 ], [ -74.009430840639538, 10.379686110271336 ], [ -74.014903600953005, 10.372785673354542 ], [ -74.022993768372828, 10.366123182538274 ], [ -74.030370097490902, 10.363267829331221 ], [ -74.034563897513635, 10.358598137107208 ], [ -74.044527890475536, 10.359193002358666 ], [ -74.055265208264416, 10.365260627923476 ], [ -74.069779920399981, 10.37049544213636 ], [ -74.078385954965881, 10.371487201483717 ], [ -74.085924087432375, 10.370582625587588 ], [ -74.089370871555275, 10.366487365870967 ], [ -74.095874422288091, 10.369225761743735 ], [ -74.101160838299222, 10.366438883993453 ], [ -74.112732427622177, 10.363283581363078 ], [ -74.123963483569696, 10.366329291450597 ], [ -74.125480810572697, 10.372119914105383 ], [ -74.134701221970261, 10.379407013435753 ], [ -74.14644981068659, 10.37791985030708 ], [ -74.152993328452624, 10.368848155222395 ], [ -74.155967654709912, 10.360073892763353 ], [ -74.157752250464284, 10.353232942371619 ], [ -74.162957321414524, 10.347135573544165 ], [ -74.166229080297512, 10.339699757900974 ], [ -74.170690569683472, 10.332710091196304 ], [ -74.177234087449506, 10.325274275553113 ], [ -74.180654562645486, 10.320812786167153 ], [ -74.184223754154232, 10.312633388959455 ], [ -74.187644229349985, 10.304602708064976 ], [ -74.194633896054654, 10.301628381807689 ], [ -74.20920809471545, 10.30385912650064 ], [ -74.21869619547607, 10.304721681115211 ], [ -74.222693689965865, 10.299391688461924 ], [ -74.223264760607265, 10.287970275634166 ], [ -74.233544032152508, 10.292919554526293 ], [ -74.243632946817172, 10.299201331581628 ], [ -74.261526493581073, 10.301009721945832 ], [ -74.277944774521302, 10.299582045342618 ], [ -74.289366187349231, 10.299344099242091 ], [ -74.297456354769167, 10.295061069431256 ], [ -74.305814211552047, 10.294793380068313 ], [ -74.321578140715701, 10.297470273699901 ], [ -74.330292916649569, 10.302586114862493 ], [ -74.330590349275326, 10.313234202863498 ], [ -74.335795420225566, 10.322008465322483 ], [ -74.349626037321968, 10.328403266775695 ], [ -74.358192096942844, 10.340716977481009 ], [ -74.363783830306602, 10.34887852873095 ], [ -74.364973560809517, 10.361489672061793 ], [ -74.36152334235112, 10.370305575088423 ], [ -74.362855840514385, 10.376206638382769 ], [ -74.364569052438526, 10.382298058557808 ], [ -74.360190844187798, 10.387818408091391 ], [ -74.364188338677536, 10.391244831939673 ], [ -74.366091907482257, 10.398288036516931 ], [ -74.360381201068321, 10.406283025496577 ], [ -74.365344756726415, 10.418699053025023 ], [ -74.368200109933355, 10.430120465852951 ], [ -74.357135616256357, 10.438686525474054 ], [ -74.347855718333676, 10.447609504245918 ], [ -74.345714203428315, 10.4618862702809 ], [ -74.350711071540616, 10.470095410750844 ], [ -74.354280263049361, 10.478304551221015 ], [ -74.349283394937061, 10.489369044898012 ], [ -74.343929607673942, 10.506858083290979 ], [ -74.346784960880882, 10.519707172722349 ], [ -74.363560160972042, 10.529700908947063 ], [ -74.38140611851577, 10.541122321774822 ], [ -74.39818131860693, 10.562894389978453 ], [ -74.413528842094479, 10.595017113557162 ], [ -74.418168791055905, 10.604297011479787 ], [ -74.429590203883834, 10.603226254027106 ], [ -74.445651565673188, 10.598229385914749 ], [ -74.456716059350413, 10.604653930630718 ], [ -74.469981554457945, 10.611316421446816 ], [ -74.484853185744385, 10.60744979731254 ], [ -74.496750490773536, 10.607751322611307 ], [ -74.500821082305379, 10.610615812948311 ], [ -74.498710405214752, 10.617400132168143 ], [ -74.488609307709623, 10.622676824894825 ], [ -74.471621859696825, 10.635788130929143 ], [ -74.467100883785804, 10.664341662999107 ], [ -74.468528560389302, 10.679094321235084 ], [ -74.4775705122114, 10.695036709974374 ], [ -74.478760242714316, 10.703840715696003 ], [ -74.477332566110931, 10.714786236322539 ], [ -74.478522296613846, 10.718593373931981 ], [ -74.472097751898048, 10.723828188144864 ], [ -74.463055800075949, 10.71383445192032 ], [ -74.446637519135606, 10.71454829022224 ], [ -74.4383094056152, 10.719069266133204 ], [ -74.429267453793045, 10.72906300235752 ], [ -74.420701394172113, 10.727635325754306 ], [ -74.416418364361562, 10.715500074624458 ] ] ] } }
]
}
